{
  "norad_id": 27811,
  "name": "HELLAS-SAT 2",
  "history": [
    {
      "epoch": "2026-03-28T18:09:38.386656Z",
      "apogee_km": 35813.366830920946,
      "perigee_km": 35759.750204100885,
      "latitude_deg": 2.401629600683646,
      "longitude_deg": -10.085903933114686,
      "height_km": 35798.48043762965,
      "semi_major_axis_km": 42164.69551751092,
      "eccentricity": 0.0006358,
      "inclination_deg": 7.1562,
      "raan_deg": 68.8318,
      "arg_perigee_deg": 261.3408,
      "mean_anomaly_deg": 118.3861,
      "mean_motion_rev_day": 1.00271915
    },
    {
      "epoch": "2026-03-29T04:25:44.288832Z",
      "apogee_km": 35813.15689289087,
      "perigee_km": 35759.91977381498,
      "latitude_deg": 0.7464932433777104,
      "longitude_deg": -10.029900376962468,
      "height_km": 35785.02081616951,
      "semi_major_axis_km": 42164.67533335293,
      "eccentricity": 0.0006313,
      "inclination_deg": 7.1573,
      "raan_deg": 68.8268,
      "arg_perigee_deg": 261.916,
      "mean_anomaly_deg": 272.263,
      "mean_motion_rev_day": 1.00271987
    },
    {
      "epoch": "2026-03-30T04:14:38.714208Z",
      "apogee_km": 35812.79224959167,
      "perigee_km": 35760.20704464359,
      "latitude_deg": 0.9670461614397049,
      "longitude_deg": -10.016307169739884,
      "height_km": 35786.4411390106,
      "semi_major_axis_km": 42164.63664711764,
      "eccentricity": 0.00062357,
      "inclination_deg": 7.1599,
      "raan_deg": 68.8152,
      "arg_perigee_deg": 263.32,
      "mean_anomaly_deg": 269.076,
      "mean_motion_rev_day": 1.00272125
    },
    {
      "epoch": "2026-03-30T06:05:55.461696Z",
      "apogee_km": 35812.75725823787,
      "perigee_km": 35760.23698997289,
      "latitude_deg": -2.4532111068095244,
      "longitude_deg": -10.212269606207098,
      "height_km": 35774.58708694554,
      "semi_major_axis_km": 42164.63412410538,
      "eccentricity": 0.0006228,
      "inclination_deg": 7.1601,
      "raan_deg": 68.8144,
      "arg_perigee_deg": 263.432,
      "mean_anomaly_deg": 296.8609,
      "mean_motion_rev_day": 1.00272134
    },
    {
      "epoch": "2026-03-30T18:04:39.071136Z",
      "apogee_km": 35812.57359871272,
      "perigee_km": 35760.38476667874,
      "latitude_deg": 2.4887960348945994,
      "longitude_deg": -10.092295724208459,
      "height_km": 35797.12130104106,
      "semi_major_axis_km": 42164.61618269573,
      "eccentricity": 0.00061887,
      "inclination_deg": 7.1613,
      "raan_deg": 68.8085,
      "arg_perigee_deg": 264.349,
      "mean_anomaly_deg": 116.123,
      "mean_motion_rev_day": 1.00272198
    },
    {
      "epoch": "2026-03-31T21:05:55.245696Z",
      "apogee_km": 35812.26514278735,
      "perigee_km": 35760.64724779768,
      "latitude_deg": 6.57178372370652,
      "longitude_deg": -10.150076220049703,
      "height_km": 35809.793759424116,
      "semi_major_axis_km": 42164.59319529252,
      "eccentricity": 0.0006121,
      "inclination_deg": 7.1641,
      "raan_deg": 68.7953,
      "arg_perigee_deg": 265.8998,
      "mean_anomaly_deg": 161.0129,
      "mean_motion_rev_day": 1.0027228
    },
    {
      "epoch": "2026-04-01T20:43:41.964096Z",
      "apogee_km": 35811.87197921703,
      "perigee_km": 35760.95406860815,
      "latitude_deg": 6.327614595741119,
      "longitude_deg": -10.166629504306162,
      "height_km": 35808.40489223516,
      "semi_major_axis_km": 42164.5500239126,
      "eccentricity": 0.0006038,
      "inclination_deg": 7.1663,
      "raan_deg": 68.7835,
      "arg_perigee_deg": 267.3817,
      "mean_anomaly_deg": 154.9595,
      "mean_motion_rev_day": 1.00272434
    },
    {
      "epoch": "2026-04-02T16:43:59.395008Z",
      "apogee_km": 35811.54485033105,
      "perigee_km": 35761.21728156753,
      "latitude_deg": 0.40273194323456973,
      "longitude_deg": -9.969859691616087,
      "height_km": 35787.79947365407,
      "semi_major_axis_km": 42164.51806594929,
      "eccentricity": 0.0005968,
      "inclination_deg": 7.1682,
      "raan_deg": 68.7733,
      "arg_perigee_deg": 268.523,
      "mean_anomaly_deg": 94.7244,
      "mean_motion_rev_day": 1.00272548
    },
    {
      "epoch": "2026-04-02T16:43:59.395872Z",
      "apogee_km": 35811.54442868586,
      "perigee_km": 35761.21770321271,
      "latitude_deg": 0.4027318009944771,
      "longitude_deg": -9.969864436868535,
      "height_km": 35787.79944052102,
      "semi_major_axis_km": 42164.51806594929,
      "eccentricity": 0.00059679,
      "inclination_deg": 7.1682,
      "raan_deg": 68.7733,
      "arg_perigee_deg": 268.523,
      "mean_anomaly_deg": 94.7244,
      "mean_motion_rev_day": 1.00272548
    },
    {
      "epoch": "2026-04-03T17:54:52.042752Z",
      "apogee_km": 35811.13481345329,
      "perigee_km": 35761.549386031984,
      "latitude_deg": 2.6767983047254376,
      "longitude_deg": -10.104083625512025,
      "height_km": 35794.75802072697,
      "semi_major_axis_km": 42164.47909974264,
      "eccentricity": 0.000588,
      "inclination_deg": 7.1707,
      "raan_deg": 68.7607,
      "arg_perigee_deg": 269.9768,
      "mean_anomaly_deg": 112.0395,
      "mean_motion_rev_day": 1.00272687
    },
    {
      "epoch": "2026-04-04T04:10:51.439008Z",
      "apogee_km": 35810.979394703514,
      "perigee_km": 35761.6790142386,
      "latitude_deg": 0.45727350516299486,
      "longitude_deg": -10.044274442990014,
      "height_km": 35787.67407968505,
      "semi_major_axis_km": 42164.466204471064,
      "eccentricity": 0.00058462,
      "inclination_deg": 7.1716,
      "raan_deg": 68.7554,
      "arg_perigee_deg": 270.5305,
      "mean_anomaly_deg": 265.9118,
      "mean_motion_rev_day": 1.00272733
    },
    {
      "epoch": "2026-04-05T05:51:02.870208Z",
      "apogee_km": 35810.58451272743,
      "perigee_km": 35762.01951187306,
      "latitude_deg": -2.7301774339860017,
      "longitude_deg": -10.223384410558388,
      "height_km": 35777.734541619946,
      "semi_major_axis_km": 42164.439012300245,
      "eccentricity": 0.0005759,
      "inclination_deg": 7.1741,
      "raan_deg": 68.7424,
      "arg_perigee_deg": 271.8472,
      "mean_anomaly_deg": 290.7133,
      "mean_motion_rev_day": 1.0027283
    },
    {
      "epoch": "2026-04-05T17:49:51.951360Z",
      "apogee_km": 35810.383833582506,
      "perigee_km": 35762.19832517339,
      "latitude_deg": 2.768646545113434,
      "longitude_deg": -10.105673433992816,
      "height_km": 35793.780169683356,
      "semi_major_axis_km": 42164.42807937795,
      "eccentricity": 0.0005714,
      "inclination_deg": 7.1752,
      "raan_deg": 68.7363,
      "arg_perigee_deg": 272.4115,
      "mean_anomaly_deg": 110.3528,
      "mean_motion_rev_day": 1.00272869
    },
    {
      "epoch": "2026-04-06T04:05:55.984704Z",
      "apogee_km": 35810.23360523772,
      "perigee_km": 35762.33229430958,
      "latitude_deg": 0.3586283935245127,
      "longitude_deg": -10.043633178130884,
      "height_km": 35788.255641919415,
      "semi_major_axis_km": 42164.419949773655,
      "eccentricity": 0.00056803,
      "inclination_deg": 7.1762,
      "raan_deg": 68.731,
      "arg_perigee_deg": 272.9304,
      "mean_anomaly_deg": 264.2796,
      "mean_motion_rev_day": 1.00272898
    },
    {
      "epoch": "2026-04-07T14:19:43.146624Z",
      "apogee_km": 35809.75280613597,
      "perigee_km": 35762.7985161965,
      "latitude_deg": -3.3457752118529203,
      "longitude_deg": -9.763085371289648,
      "height_km": 35773.6811138895,
      "semi_major_axis_km": 42164.412661166236,
      "eccentricity": 0.0005568,
      "inclination_deg": 7.1796,
      "raan_deg": 68.7137,
      "arg_perigee_deg": 274.3141,
      "mean_anomaly_deg": 57.7702,
      "mean_motion_rev_day": 1.00272924
    },
    {
      "epoch": "2026-04-07T17:44:54.523680Z",
      "apogee_km": 35809.6833796694,
      "perigee_km": 35762.8640180294,
      "latitude_deg": 2.859737634366677,
      "longitude_deg": -10.105653671773549,
      "height_km": 35793.04727880789,
      "semi_major_axis_km": 42164.4106988494,
      "eccentricity": 0.0005552,
      "inclination_deg": 7.1799,
      "raan_deg": 68.7119,
      "arg_perigee_deg": 274.4239,
      "mean_anomaly_deg": 109.1004,
      "mean_motion_rev_day": 1.00272931
    },
    {
      "epoch": "2026-04-08T09:48:52.035840Z",
      "apogee_km": 35809.48070268303,
      "perigee_km": 35763.07286229747,
      "latitude_deg": -7.145787515093029,
      "longitude_deg": -10.045997958188595,
      "height_km": 35764.167115806544,
      "semi_major_axis_km": 42164.41378249025,
      "eccentricity": 0.00055032,
      "inclination_deg": 7.1815,
      "raan_deg": 68.7039,
      "arg_perigee_deg": 275.0946,
      "mean_anomaly_deg": 350.09,
      "mean_motion_rev_day": 1.0027292
    },
    {
      "epoch": "2026-04-09T17:40:02.964288Z",
      "apogee_km": 35809.022483520304,
      "perigee_km": 35763.56079656062,
      "latitude_deg": 2.9505480796555945,
      "longitude_deg": -10.106035745133331,
      "height_km": 35792.54013484125,
      "semi_major_axis_km": 42164.42864004047,
      "eccentricity": 0.0005391,
      "inclination_deg": 7.1846,
      "raan_deg": 68.6878,
      "arg_perigee_deg": 276.0207,
      "mean_anomaly_deg": 108.2878,
      "mean_motion_rev_day": 1.00272867
    },
    {
      "epoch": "2026-04-10T05:38:45.642336Z",
      "apogee_km": 35808.85998717182,
      "perigee_km": 35763.74403742867,
      "latitude_deg": -2.9579596112911943,
      "longitude_deg": -10.217661888409163,
      "height_km": 35779.324742371144,
      "semi_major_axis_km": 42164.439012300245,
      "eccentricity": 0.000535,
      "inclination_deg": 7.1858,
      "raan_deg": 68.6818,
      "arg_perigee_deg": 276.3909,
      "mean_anomaly_deg": 288.0953,
      "mean_motion_rev_day": 1.0027283
    }
  ]
}